[{"OBJECT_NAME":"STARLINK-31332","OBJECT_ID":"2024-076C","EPOCH":"2026-03-09T05:18:37.753920","MEAN_MOTION":15.27582085,"ECCENTRICITY":0.0002172,"INCLINATION":43.0076,"RA_OF_ASC_NODE":11.4224,"ARG_OF_PERICENTER":266.0667,"MEAN_ANOMALY":93.9936,"EPHEMERIS_TYPE":0,"CLASSIFICATION_TYPE":"U","NORAD_CAT_ID":59566,"ELEMENT_SET_NO":999,"REV_AT_EPOCH":10643,"BSTAR":-3.0486869e-5,"MEAN_MOTION_DOT":-1.101e-5,"MEAN_MOTION_DDOT":0},{"OBJECT_NAME":"YAOGAN-43 01H","OBJECT_ID":"2024-148H","EPOCH":"2026-03-10T00:13:57.702432","MEAN_MOTION":15.25826805,"ECCENTRICITY":0.000635,"INCLINATION":34.994,"RA_OF_ASC_NODE":64.6147,"ARG_OF_PERICENTER":359.2394,"MEAN_ANOMALY":0.8311,"EPHEMERIS_TYPE":0,"CLASSIFICATION_TYPE":"U","NORAD_CAT_ID":60465,"ELEMENT_SET_NO":999,"REV_AT_EPOCH":8702,"BSTAR":0.00039232254,"MEAN_MOTION_DOT":0.00010268,"MEAN_MOTION_DDOT":0}]
